STARLINK-3546           
1 51718U 22016E   22060.25001157 -.00060627  00000+0 -43066-3 0  9998
2 51718  53.2184 101.7024 0001417  55.8417 247.1164 15.73199970  2429
STARLINK-3540           
1 51719U 22016F   22060.25001157 -.00095740  00000+0 -68336-3 0  9990
2 51719  53.2183 101.7055 0001320  63.7042 237.6502 15.73273251  2423
STARLINK-3526           
1 51720U 22016G   22060.25001157  .00006409  00000+0  50158-4 0  9998
2 51720  53.2185 101.7016 0001257  61.2511 242.2491 15.73145648  2424
STARLINK-3524           
1 51721U 22016H   22060.25001157 -.00037049  00000+0 -26092-3 0  9994
2 51721  53.2183 101.7036 0001303  54.9340 247.3382 15.73182038  2481
STARLINK-3535           
1 51722U 22016J   22060.25001157 -.00109981  00000+0 -78567-3 0  9994
2 51722  53.2186 101.6982 0001498  65.6990 239.5748 15.73311904  2428
STARLINK-3531           
1 51723U 22016K   22059.91667824  .00044198  00000+0  26662-3 0  9990
2 51723  53.2206 103.2744 0003784 295.9291 315.7732 15.77229109  1831
STARLINK-3529           
1 51724U 22016L   22059.91667824  .00004050  00000+0  33346-4 0  9992
2 51724  53.2200 103.3443 0001362  63.1612 154.6532 15.73139085  1832
STARLINK-3522           
1 51725U 22016M   22060.25001157 -.00110268  00000+0 -78791-3 0  9996
2 51725  53.2206 101.6994 0001262  67.5969 237.0378 15.73308255  2497
STARLINK-3527           
1 51726U 22016N   22060.25001157  .00003052  00000+0  26164-4 0  9995
2 51726  53.2189 101.6930 0001146  63.5904 244.4273 15.73189605  2429
STARLINK-3532           
1 51727U 22016P   22059.91667824 -.00071926  00000+0 -51256-3 0  9992
2 51727  53.2205 103.3451 0001290  64.5121 152.6873 15.73195126  1833
STARLINK-3448           
1 51728U 22016Q   22059.91667824 -.00026000  00000+0 -18155-3 0  9997
2 51728  53.2188 103.3393 0001343  70.1008 150.2541 15.73181049  1830
STARLINK-3523           
1 51729U 22016R   22059.91667824  .00013779  00000+0  10266-3 0  9990
2 51729  53.2200 103.3426 0001305  56.6403 161.8459 15.73146763  1839
STARLINK-3530           
1 51730U 22016S   22060.25001157 -.00100836  00000+0 -72067-3 0  9992
2 51730  53.2191 101.6877 0001284  74.1126 236.5092 15.73264886  2420
STARLINK-3514           
1 51731U 22016T   22059.91667824 -.00002030  00000+0 -10059-4 0  9994
2 51731  53.2186 103.3404 0001196  61.4591 158.2571 15.73184149  1836
STARLINK-3518           
1 51732U 22016U   22059.91667824  .00068271  00000+0  48716-3 0  9992
2 51732  53.2190 103.3356 0000943  64.1488 158.1507 15.73188152  1838
STARLINK-3525           
1 51733U 22016V   22060.25001157 -.00019531  00000+0 -13480-3 0  9990
2 51733  53.2186 101.6889 0001220  61.5615 248.2850 15.73245714  2424
STARLINK-3450           
1 51734U 22016W   22060.25001157  .00009016  00000+0  68432-4 0  9994
2 51734  53.2193 101.6833 0000961  51.6229 261.2464 15.73251833  2474
STARLINK-3517           
1 51735U 22016X   22059.91667824  .00068456  00000+0  48757-3 0  9995
2 51735  53.2187 103.3344 0001210  78.7700 143.9488 15.73230586  1839
STARLINK-3447           
1 51736U 22016Y   22059.91667824 -.00042801  00000+0 -30180-3 0  9995
2 51736  53.2191 103.3292 0001166  61.8807 163.6013 15.73222760  1836
STARLINK-3509           
1 51737U 22016Z   22060.25001157  .00008941  00000+0  67879-4 0  9997
2 51737  53.2189 101.6841 0001764  77.1527 235.1202 15.73263310  2425
STARLINK-3515           
1 51738U 22016AA  22060.25001157  .00000861  00000+0  10552-4 0  9997
2 51738  53.2194 101.6779 0001295  64.2562 251.4582 15.73190061  2476
STARLINK-3516           
1 51739U 22016AB  22059.91667824 -.00080719  00000+0 -57531-3 0  9997
2 51739  53.2188 103.3302 0001042  63.8322 161.0064 15.73238339  1831
STARLINK-3500           
1 51740U 22016AC  22060.25001157  .00004143  00000+0  33842-4 0  9994
2 51740  53.2194 101.6744 0001409  72.5120 244.8723 15.73258450  2425
STARLINK-3520           
1 51741U 22016AD  22060.25001157  .00008796  00000+0  66882-4 0  9993
2 51741  53.2191 101.6792 0000912  66.0780 248.7091 15.73249806  2475
STARLINK-3521           
1 51742U 22016AE  22059.91667824  .00013313  00000+0  99116-4 0  9991
2 51742  53.2193 103.3217 0001159  67.7038 161.5972 15.73200901  1839
STARLINK-3512           
1 51743U 22016AF  22059.91667824  .00070226  00000+0  50015-3 0  9992
2 51743  53.2189 103.3257 0000839  72.1525 154.9708 15.73221599  1833
STARLINK-3452           
1 51744U 22016AG  22059.91667824  .00063946  00000+0  45665-3 0  9999
2 51744  53.2194 103.3196 0001426  84.9618 145.4217 15.73195922  1839
STARLINK-3449           
1 51745U 22016AH  22059.91667824 -.00058165  00000+0 -41245-3 0  9999
2 51745  53.2191 103.3238 0001023  64.2306 163.8215 15.73224785  1834
STARLINK-3502           
1 51746U 22016AJ  22059.91667824 -.00023560  00000+0 -16352-3 0  9992
2 51746  53.2195 103.3167 0001311  57.0291 174.7935 15.73256148  1831
STARLINK-3446           
1 51747U 22016AK  22059.91667824 -.00014345  00000+0 -97836-4 0  9991
2 51747  53.2191 103.3201 0001007  78.8946 151.0350 15.73231631  1836
STARLINK-3501           
1 51748U 22016AL  22060.25001157  .00006357  00000+0  49565-4 0  9990
2 51748  53.2196 101.6656 0001213  57.2220 264.6332 15.73252224  2420
STARLINK-3451           
1 51749U 22016AM  22059.91667824 -.00040049  00000+0 -28177-3 0  9994
2 51749  53.2191 103.3173 0001352  54.3485 176.8704 15.73242680  1830
STARLINK-3505           
1 51750U 22016AN  22059.91667824 -.00032995  00000+0 -23093-3 0  9999
2 51750  53.2198 103.3119 0000876  70.1765 164.1823 15.73268340  1839
STARLINK-3506           
1 51751U 22016AP  22059.91667824  .00008419  00000+0  64257-4 0  9990
2 51751  53.2192 103.3150 0001410  65.1749 167.3120 15.73230681  1832
STARLINK-3511           
1 51752U 22016AQ  22059.91667824 -.00043050  00000+0 -30315-3 0  9990
2 51752  53.2190 103.3102 0001335  64.1007 170.9112 15.73256338  1838
STARLINK-3507           
1 51753U 22016AR  22059.91667824 -.00038878  00000+0 -27309-3 0  9992
2 51753  53.2194 103.3124 0001122  54.4341 179.3220 15.73266677  1834
STARLINK-3457           
1 51754U 22016AS  22059.91667824 -.00016404  00000+0 -11243-3 0  9994
2 51754  53.2191 103.3054 0001318  65.0110 171.2818 15.73252946  1831
STARLINK-3460           
1 51755U 22016AT  22059.91667824  .00003581  00000+0  29859-4 0  9998
2 51755  53.2189 103.3065 0001107  74.1087 161.5071 15.73249841  1834
STARLINK-3513           
1 51756U 22016AU  22060.25001157  .00010484  00000+0  78983-4 0  9991
2 51756  53.2200 101.6586 0000811  39.2522 286.3386 15.73211168  2427
STARLINK-3459           
1 51757U 22016AV  22060.25001157  .00004642  00000+0  37389-4 0  9996
2 51757  53.2196 101.6565 0001478  67.9432 258.3717 15.73254855  2479
STARLINK-3458           
1 51758U 22016AW  22060.25001157 -.00029614  00000+0 -20698-3 0  9999
2 51758  53.2200 101.6552 0001421  51.7235 275.4468 15.73237943  2496
STARLINK-3456           
1 51759U 22016AX  22060.25001157  .00001215  00000+0  13059-4 0  9999
2 51759  53.2196 101.6533 0001548  62.7755 265.0255 15.73231216  2495
FALCON 9 DEB            
1 51760U 22016AY  22060.18238084  .00085905  00000+0  43599-3 0  9993
2 51760  53.2300 101.8855 0006679 289.9351  70.0952 15.80769974  1355
FALCON 9 DEB            
1 51761U 22016AZ  22060.18068587  .00093630  00000+0  46595-3 0  9996
2 51761  53.2285 101.8724 0005557 265.5805  94.4584 15.81172791  1358
FALCON 9 DEB            
1 51762U 22016BA  22060.17599738  .00098782  00000+0  46690-3 0  9992
2 51762  53.2258 101.8371 0010477 267.3527  92.6298 15.82204625  1350
FALCON 9 DEB            
1 51763U 22016BB  22060.17456346  .00094322  00000+0  44037-3 0  9999
2 51763  53.2244 101.8251 0010081 249.9833 110.0107 15.82492022  1354
L-SAR 01B               
1 51822U 22018A   22059.71290916 -.00000055  00000+0  00000+0 0  9993
2 51822  97.8151  68.6304 0004594 244.0880 115.9847 14.89956117   259
CZ-4C R/B               
1 51823U 22018B   22060.20630183 -.00000095  00000+0  00000+0 0  9998
2 51823  97.8618  69.2881 0134180  33.9070 327.0663 15.19813616   337
2022-019A               
1 51824U 22019A   22059.96164023  .00003096  00000+0  20158-3 0  9999
2 51824  97.5220 136.7269 0019557 263.4494  96.4508 15.08528250   288
2022-019B               
1 51825U 22019B   22059.96133123  .00003338  00000+0  21570-3 0  9995
2 51825  97.5204 136.7248 0017412 260.6030  99.3230 15.08792548   277
2022-019C               
1 51826U 22019C   22060.22635729  .00053391  00000+0  33470-2 0  9991
2 51826  97.5211 136.9801 0016815 260.6923  99.2380 15.09014204   317
2022-019D               
1 51827U 22019D   22059.96101286  .00002200  00000+0  14259-3 0  9995
2 51827  97.5206 136.7254 0015528 261.2517  98.6957 15.09060592   277
2022-019E               
1 51828U 22019E   22059.96098514  .00004193  00000+0  26786-3 0  9996
2 51828  97.5204 136.7257 0016341 263.9873  95.9486 15.09084166   277
2022-019F               
1 51829U 22019F   22060.15983088  .00062718  00000+0  39091-2 0  9998
2 51829  97.5233 136.9181 0016394 261.6739  98.2630 15.09177963   301
2022-019G               
1 51830U 22019G   22059.76199364  .00001527  00000+0  10000-3 0  9992
2 51830  97.5214 136.5288 0016100 262.5102  97.3635 15.09132267   241
2022-019H               
1 51831U 22019H   22059.96084060  .00000818  00000+0  55330-4 0  9999
2 51831  97.5220 136.7201 0016756 271.9550  87.9761 15.09195782   273
2022-019J               
1 51832U 22019J   22060.22602225  .00044343  00000+0  27660-2 0  9994
2 51832  97.5214 136.9810 0017198 267.9134  92.0105 15.09245124   319
2022-019K               
1 51833U 22019K   22059.96047351  .00003723  00000+0  23563-3 0  9993
2 51833  97.5202 136.7236 0014793 266.2864  93.6676 15.09513318   275
2022-019L               
1 51834U 22019L   22059.96045089  .00002762  00000+0  17577-3 0  9990
2 51834  97.5220 136.7325 0015365 269.7342  90.2129 15.09527224   277
